{
  "type": "FeatureCollection",
  "features": [
    {
      "type": "Feature",
      "properties": {
        "norad_id": 31215,
        "name": "FENGYUN 1C DEB",
        "group": "fengyun-1c-debris",
        "lat": 13.236768795530642,
        "lon": -179.732017673513,
        "alt_km": 735.3107690753222,
        "timestamp": "2025-12-04T17:48:40.446883+00:00",
        "meta_object_name": "FENGYUN 1C DEB",
        "meta_object_id": "1999-025BKV",
        "meta_epoch": "2025-12-01T19:24:11.403648",
        "meta_mean_motion": 14.33696459,
        "meta_eccentricity": 0.00702274,
        "meta_inclination": 99.0744,
        "meta_ra_of_asc_node": 179.3473,
        "meta_arg_of_pericenter": 355.6358,
        "meta_mean_anomaly": 4.4204,
        "meta_ephemeris_type": 0,
        "meta_classification_type": "U",
        "meta_norad_cat_id": 31215,
        "meta_element_set_no": 999,
        "meta_rev_at_epoch": 96369,
        "meta_bstar": 0.00097709666,
        "meta_mean_motion_dot": 2.74e-05,
        "meta_mean_motion_ddot": 0,
        "tle_line1": "1 31215U 99025BKV 25335.80846532  .00002740  00000+0  97710-3 0  9990",
        "tle_line2": "2 31215  99.0744 179.3473 0070227 355.6358   4.4204 14.33696459963691"
      },
      "geometry": {
        "type": "Point",
        "coordinates": [
          -179.732017673513,
          13.236768795530642
        ]
      }
    },
    {
      "type": "Feature",
      "properties": {
        "norad_id": 31217,
        "name": "FENGYUN 1C DEB",
        "group": "fengyun-1c-debris",
        "lat": -79.79415634361872,
        "lon": 44.48135489286959,
        "alt_km": 843.5090569283238,
        "timestamp": "2025-12-04T17:48:40.446893+00:00",
        "meta_object_name": "FENGYUN 1C DEB",
        "meta_object_id": "1999-025BKX",
        "meta_epoch": "2025-12-04T06:21:22.064544",
        "meta_mean_motion": 14.17508117,
        "meta_eccentricity": 0.00993189,
        "meta_inclination": 98.6409,
        "meta_ra_of_asc_node": 346.3844,
        "meta_arg_of_pericenter": 184.3408,
        "meta_mean_anomaly": 175.6916,
        "meta_ephemeris_type": 0,
        "meta_classification_type": "U",
        "meta_norad_cat_id": 31217,
        "meta_element_set_no": 999,
        "meta_rev_at_epoch": 96228,
        "meta_bstar": 0.0009841708,
        "meta_mean_motion_dot": 2.054e-05,
        "meta_mean_motion_ddot": 0,
        "tle_line1": "1 31217U 99025BKX 25338.26483871  .00002054  00000+0  98417-3 0  9991",
        "tle_line2": "2 31217  98.6409 346.3844 0099318 184.3408 175.6916 14.17508117962289"
      },
      "geometry": {
        "type": "Point",
        "coordinates": [
          44.48135489286959,
          -79.79415634361872
        ]
      }
    },
    {
      "type": "Feature",
      "properties": {
        "norad_id": 31218,
        "name": "FENGYUN 1C DEB",
        "group": "fengyun-1c-debris",
        "lat": 39.81950585195869,
        "lon": 80.77048130974786,
        "alt_km": 645.0521516435847,
        "timestamp": "2025-12-04T17:48:40.446903+00:00",
        "meta_object_name": "FENGYUN 1C DEB",
        "meta_object_id": "1999-025BKY",
        "meta_epoch": "2025-12-01T06:24:18.111456",
        "meta_mean_motion": 14.71471292,
        "meta_eccentricity": 0.00115881,
        "meta_inclination": 98.8418,
        "meta_ra_of_asc_node": 84.4549,
        "meta_arg_of_pericenter": 76.3108,
        "meta_mean_anomaly": 283.9385,
        "meta_ephemeris_type": 0,
        "meta_classification_type": "U",
        "meta_norad_cat_id": 31218,
        "meta_element_set_no": 999,
        "meta_rev_at_epoch": 96914,
        "meta_bstar": 0.0061013731,
        "meta_mean_motion_dot": 0.00038025,
        "meta_mean_motion_ddot": 0,
        "tle_line1": "1 31218U 99025BKY 25335.26687629  .00038025  00000+0  61014-2 0  9995",
        "tle_line2": "2 31218  98.8418  84.4549 0011588  76.3108 283.9385 14.71471292969142"
      },
      "geometry": {
        "type": "Point",
        "coordinates": [
          80.77048130974786,
          39.81950585195869
        ]
      }
    },
    {
      "type": "Feature",
      "properties": {
        "norad_id": 31219,
        "name": "FENGYUN 1C DEB",
        "group": "fengyun-1c-debris",
        "lat": 40.231382186600584,
        "lon": 176.2536690025697,
        "alt_km": 815.1676856727636,
        "timestamp": "2025-12-04T17:48:40.446914+00:00",
        "meta_object_name": "FENGYUN 1C DEB",
        "meta_object_id": "1999-025BKZ",
        "meta_epoch": "2025-11-28T23:33:42.264288",
        "meta_mean_motion": 14.13677132,
        "meta_eccentricity": 0.00786886,
        "meta_inclination": 99.2839,
        "meta_ra_of_asc_node": 342.322,
        "meta_arg_of_pericenter": 215.6749,
        "meta_mean_anomaly": 143.9149,
        "meta_ephemeris_type": 0,
        "meta_classification_type": "U",
        "meta_norad_cat_id": 31219,
        "meta_element_set_no": 999,
        "meta_rev_at_epoch": 95375,
        "meta_bstar": 0.0014850879,
        "meta_mean_motion_dot": 2.841e-05,
        "meta_mean_motion_ddot": 0,
        "tle_line1": "1 31219U 99025BKZ 25332.98173917  .00002841  00000+0  14851-2 0  9996",
        "tle_line2": "2 31219  99.2839 342.3220 0078688 215.6749 143.9149 14.13677132953750"
      },
      "geometry": {
        "type": "Point",
        "coordinates": [
          176.2536690025697,
          40.231382186600584
        ]
      }
    },
    {
      "type": "Feature",
      "properties": {
        "norad_id": 31222,
        "name": "FENGYUN 1C DEB",
        "group": "fengyun-1c-debris",
        "lat": 71.21880349257812,
        "lon": 21.42600139096983,
        "alt_km": 457.5549017847061,
        "timestamp": "2025-12-04T17:48:40.446924+00:00",
        "meta_object_name": "FENGYUN 1C DEB",
        "meta_object_id": "1999-025BLC",
        "meta_epoch": "2025-12-03T22:14:51.691488",
        "meta_mean_motion": 14.9753802,
        "meta_eccentricity": 0.01705221,
        "meta_inclination": 98.6139,
        "meta_ra_of_asc_node": 46.9997,
        "meta_arg_of_pericenter": 98.2544,
        "meta_mean_anomaly": 263.8052,
        "meta_ephemeris_type": 0,
        "meta_classification_type": "U",
        "meta_norad_cat_id": 31222,
        "meta_element_set_no": 999,
        "meta_rev_at_epoch": 99852,
        "meta_bstar": 0.0013137724,
        "meta_mean_motion_dot": 0.00020663,
        "meta_mean_motion_ddot": 0,
        "tle_line1": "1 31222U 99025BLC 25337.92698717  .00020663  00000+0  13138-2 0  9998",
        "tle_line2": "2 31222  98.6139  46.9997 0170522  98.2544 263.8052 14.97538020998529"
      },
      "geometry": {
        "type": "Point",
        "coordinates": [
          21.42600139096983,
          71.21880349257812
        ]
      }
    },
    {
      "type": "Feature",
      "properties": {
        "norad_id": 31223,
        "name": "FENGYUN 1C DEB",
        "group": "fengyun-1c-debris",
        "lat": 45.25599669865731,
        "lon": -143.74075090752012,
        "alt_km": 799.0411869348018,
        "timestamp": "2025-12-04T17:48:40.446934+00:00",
        "meta_object_name": "FENGYUN 1C DEB",
        "meta_object_id": "1999-025BLD",
        "meta_epoch": "2025-12-02T22:00:22.860000",
        "meta_mean_motion": 13.77164601,
        "meta_eccentricity": 0.0241211,
        "meta_inclination": 99.0054,
        "meta_ra_of_asc_node": 223.7356,
        "meta_arg_of_pericenter": 66.7987,
        "meta_mean_anomaly": 295.8373,
        "meta_ephemeris_type": 0,
        "meta_classification_type": "U",
        "meta_norad_cat_id": 31223,
        "meta_element_set_no": 999,
        "meta_rev_at_epoch": 92593,
        "meta_bstar": 0.0028929791,
        "meta_mean_motion_dot": 3.511e-05,
        "meta_mean_motion_ddot": 0,
        "tle_line1": "1 31223U 99025BLD 25336.91693125  .00003511  00000+0  28930-2 0  9994",
        "tle_line2": "2 31223  99.0054 223.7356 0241211  66.7987 295.8373 13.77164601925933"
      },
      "geometry": {
        "type": "Point",
        "coordinates": [
          -143.74075090752012,
          45.25599669865731
        ]
      }
    },
    {
      "type": "Feature",
      "properties": {
        "norad_id": 31224,
        "name": "FENGYUN 1C DEB",
        "group": "fengyun-1c-debris",
        "lat": -32.11522952545352,
        "lon": 145.65168357553262,
        "alt_km": 699.4862914553732,
        "timestamp": "2025-12-04T17:48:40.446944+00:00",
        "meta_object_name": "FENGYUN 1C DEB",
        "meta_object_id": "1999-025BLE",
        "meta_epoch": "2025-12-03T18:07:18.672672",
        "meta_mean_motion": 14.28870959,
        "meta_eccentricity": 0.01575493,
        "meta_inclination": 98.3692,
        "meta_ra_of_asc_node": 330.0057,
        "meta_arg_of_pericenter": 189.4604,
        "meta_mean_anomaly": 347.708,
        "meta_ephemeris_type": 0,
        "meta_classification_type": "U",
        "meta_norad_cat_id": 31224,
        "meta_element_set_no": 999,
        "meta_rev_at_epoch": 69122,
        "meta_bstar": 0.00043720692,
        "meta_mean_motion_dot": 1.217e-05,
        "meta_mean_motion_ddot": 0,
        "tle_line1": "1 31224U 99025BLE 25337.75507723  .00001217  00000+0  43721-3 0  9993",
        "tle_line2": "2 31224  98.3692 330.0057 0157549 189.4604 347.7080 14.28870959691224"
      },
      "geometry": {
        "type": "Point",
        "coordinates": [
          145.65168357553262,
          -32.11522952545352
        ]
      }
    }
  ]
}